{
  "type": "FeatureCollection",
  "features": [
    {
      "type": "Feature",
      "properties": {
        "norad_id": 34010,
        "name": "COSMOS 2251 DEB",
        "group": "cosmos-2251-debris",
        "lat": -26.85533877663567,
        "lon": 87.16622029763657,
        "alt_km": 512.2783008246615,
        "timestamp": "2025-12-24T09:46:31.398244+00:00",
        "meta_object_name": "COSMOS 2251 DEB",
        "meta_object_id": "1993-036GV",
        "meta_epoch": "2025-12-24T02:32:53.194272",
        "meta_mean_motion": 15.20549347,
        "meta_eccentricity": 0.0004713,
        "meta_inclination": 73.9972,
        "meta_ra_of_asc_node": 259.4433,
        "meta_arg_of_pericenter": 58.6224,
        "meta_mean_anomaly": 301.5434,
        "meta_ephemeris_type": 0,
        "meta_classification_type": "U",
        "meta_norad_cat_id": 34010,
        "meta_element_set_no": 999,
        "meta_rev_at_epoch": 89458,
        "meta_bstar": 0.0038551,
        "meta_mean_motion_dot": 0.00085389,
        "meta_mean_motion_ddot": 0,
        "tle_line1": "1 34010U 93036GV  25358.10617123  .00085389  00000+0  38551-2 0  9999",
        "tle_line2": "2 34010  73.9972 259.4433 0004713  58.6224 301.5434 15.20549347894583"
      },
      "geometry": {
        "type": "Point",
        "coordinates": [
          87.16622029763657,
          -26.85533877663567
        ]
      }
    },
    {
      "type": "Feature",
      "properties": {
        "norad_id": 34011,
        "name": "COSMOS 2251 DEB",
        "group": "cosmos-2251-debris",
        "lat": -44.00264704371152,
        "lon": -67.57453777934974,
        "alt_km": 752.0505130908796,
        "timestamp": "2025-12-24T09:46:31.398255+00:00",
        "meta_object_name": "COSMOS 2251 DEB",
        "meta_object_id": "1993-036GW",
        "meta_epoch": "2025-12-24T03:19:39.827424",
        "meta_mean_motion": 14.41820832,
        "meta_eccentricity": 0.0036256,
        "meta_inclination": 74.0149,
        "meta_ra_of_asc_node": 308.9955,
        "meta_arg_of_pericenter": 29.4155,
        "meta_mean_anomaly": 330.903,
        "meta_ephemeris_type": 0,
        "meta_classification_type": "U",
        "meta_norad_cat_id": 34011,
        "meta_element_set_no": 999,
        "meta_rev_at_epoch": 88080,
        "meta_bstar": 0.00078833,
        "meta_mean_motion_dot": 2.571e-05,
        "meta_mean_motion_ddot": 0,
        "tle_line1": "1 34011U 93036GW  25358.13865541  .00002571  00000+0  78833-3 0  9992",
        "tle_line2": "2 34011  74.0149 308.9955 0036256  29.4155 330.9030 14.41820832880808"
      },
      "geometry": {
        "type": "Point",
        "coordinates": [
          -67.57453777934974,
          -44.00264704371152
        ]
      }
    },
    {
      "type": "Feature",
      "properties": {
        "norad_id": 34014,
        "name": "COSMOS 2251 DEB",
        "group": "cosmos-2251-debris",
        "lat": 47.51021193445981,
        "lon": 59.72914591341117,
        "alt_km": 648.4920259115243,
        "timestamp": "2025-12-24T09:46:31.398266+00:00",
        "meta_object_name": "COSMOS 2251 DEB",
        "meta_object_id": "1993-036GZ",
        "meta_epoch": "2025-12-23T04:24:15.434208",
        "meta_mean_motion": 14.73254198,
        "meta_eccentricity": 0.00374882,
        "meta_inclination": 74.017,
        "meta_ra_of_asc_node": 260.3499,
        "meta_arg_of_pericenter": 37.0908,
        "meta_mean_anomaly": 84.3191,
        "meta_ephemeris_type": 0,
        "meta_classification_type": "U",
        "meta_norad_cat_id": 34014,
        "meta_element_set_no": 999,
        "meta_rev_at_epoch": 89457,
        "meta_bstar": 0.00092045815,
        "meta_mean_motion_dot": 5.986e-05,
        "meta_mean_motion_ddot": 0,
        "tle_line1": "1 34014U 93036GZ  25357.18351197  .00005986  00000+0  92046-3 0  9991",
        "tle_line2": "2 34014  74.0170 260.3499 0037488  37.0908  84.3191 14.73254198894576"
      },
      "geometry": {
        "type": "Point",
        "coordinates": [
          59.72914591341117,
          47.51021193445981
        ]
      }
    },
    {
      "type": "Feature",
      "properties": {
        "norad_id": 34015,
        "name": "COSMOS 2251 DEB",
        "group": "cosmos-2251-debris",
        "lat": 60.59145201989035,
        "lon": 167.68048190767297,
        "alt_km": 700.2180583013505,
        "timestamp": "2025-12-24T09:46:31.398280+00:00",
        "meta_object_name": "COSMOS 2251 DEB",
        "meta_object_id": "1993-036HA",
        "meta_epoch": "2025-12-23T10:44:27.072384",
        "meta_mean_motion": 14.6037638,
        "meta_eccentricity": 0.00209622,
        "meta_inclination": 74.0244,
        "meta_ra_of_asc_node": 138.9674,
        "meta_arg_of_pericenter": 235.7756,
        "meta_mean_anomaly": 185.4899,
        "meta_ephemeris_type": 0,
        "meta_classification_type": "U",
        "meta_norad_cat_id": 34015,
        "meta_element_set_no": 999,
        "meta_rev_at_epoch": 88687,
        "meta_bstar": 0.0012018197,
        "meta_mean_motion_dot": 5.808e-05,
        "meta_mean_motion_ddot": 0,
        "tle_line1": "1 34015U 93036HA  25357.44753556  .00005808  00000+0  12018-2 0  9999",
        "tle_line2": "2 34015  74.0244 138.9674 0020962 235.7756 185.4899 14.60376380886877"
      },
      "geometry": {
        "type": "Point",
        "coordinates": [
          167.68048190767297,
          60.59145201989035
        ]
      }
    },
    {
      "type": "Feature",
      "properties": {
        "norad_id": 34018,
        "name": "COSMOS 2251 DEB",
        "group": "cosmos-2251-debris",
        "lat": 53.64909709679501,
        "lon": -130.81725705994788,
        "alt_km": 769.4750900291883,
        "timestamp": "2025-12-24T09:46:31.398302+00:00",
        "meta_object_name": "COSMOS 2251 DEB",
        "meta_object_id": "1993-036HD",
        "meta_epoch": "2025-12-23T23:37:00.998112",
        "meta_mean_motion": 13.81084077,
        "meta_eccentricity": 0.0263163,
        "meta_inclination": 73.878,
        "meta_ra_of_asc_node": 73.0414,
        "meta_arg_of_pericenter": 106.768,
        "meta_mean_anomaly": 71.6819,
        "meta_ephemeris_type": 0,
        "meta_classification_type": "U",
        "meta_norad_cat_id": 34018,
        "meta_element_set_no": 999,
        "meta_rev_at_epoch": 84812,
        "meta_bstar": 0.00035008,
        "meta_mean_motion_dot": 4.6e-06,
        "meta_mean_motion_ddot": 0,
        "tle_line1": "1 34018U 93036HD  25357.98403933  .00000460  00000+0  35008-3 0  9996",
        "tle_line2": "2 34018  73.8780  73.0414 0263163 106.7680  71.6819 13.81084077848123"
      },
      "geometry": {
        "type": "Point",
        "coordinates": [
          -130.81725705994788,
          53.64909709679501
        ]
      }
    },
    {
      "type": "Feature",
      "properties": {
        "norad_id": 34019,
        "name": "COSMOS 2251 DEB",
        "group": "cosmos-2251-debris",
        "lat": -50.0610303392302,
        "lon": 9.176581092027757,
        "alt_km": 791.2301993211058,
        "timestamp": "2025-12-24T09:46:31.398314+00:00",
        "meta_object_name": "COSMOS 2251 DEB",
        "meta_object_id": "1993-036HE",
        "meta_epoch": "2025-12-24T03:35:31.557120",
        "meta_mean_motion": 14.33985152,
        "meta_eccentricity": 0.0062228,
        "meta_inclination": 73.9532,
        "meta_ra_of_asc_node": 29.7556,
        "meta_arg_of_pericenter": 209.2515,
        "meta_mean_anomaly": 207.7104,
        "meta_ephemeris_type": 0,
        "meta_classification_type": "U",
        "meta_norad_cat_id": 34019,
        "meta_element_set_no": 999,
        "meta_rev_at_epoch": 87684,
        "meta_bstar": 0.00067491,
        "meta_mean_motion_dot": 1.899e-05,
        "meta_mean_motion_ddot": 0,
        "tle_line1": "1 34019U 93036HE  25358.14967080  .00001899  00000+0  67491-3 0  9992",
        "tle_line2": "2 34019  73.9532  29.7556 0062228 209.2515 207.7104 14.33985152876841"
      },
      "geometry": {
        "type": "Point",
        "coordinates": [
          9.176581092027757,
          -50.0610303392302
        ]
      }
    },
    {
      "type": "Feature",
      "properties": {
        "norad_id": 34021,
        "name": "COSMOS 2251 DEB",
        "group": "cosmos-2251-debris",
        "lat": -2.678926150119132,
        "lon": 107.15384365081222,
        "alt_km": 732.8576871963105,
        "timestamp": "2025-12-24T09:46:31.398324+00:00",
        "meta_object_name": "COSMOS 2251 DEB",
        "meta_object_id": "1993-036HG",
        "meta_epoch": "2025-12-24T02:19:09.727104",
        "meta_mean_motion": 14.49986869,
        "meta_eccentricity": 0.0020973,
        "meta_inclination": 74.036,
        "meta_ra_of_asc_node": 108.5044,
        "meta_arg_of_pericenter": 251.5081,
        "meta_mean_anomaly": 284.5816,
        "meta_ephemeris_type": 0,
        "meta_classification_type": "U",
        "meta_norad_cat_id": 34021,
        "meta_element_set_no": 999,
        "meta_rev_at_epoch": 88794,
        "meta_bstar": 0.00045044,
        "meta_mean_motion_dot": 1.721e-05,
        "meta_mean_motion_ddot": 0,
        "tle_line1": "1 34021U 93036HG  25358.09664036  .00001721  00000+0  45044-3 0  9998",
        "tle_line2": "2 34021  74.0360 108.5044 0020973 251.5081 284.5816 14.49986869887941"
      },
      "geometry": {
        "type": "Point",
        "coordinates": [
          107.15384365081222,
          -2.678926150119132
        ]
      }
    }
  ]
}